#dP2023  1 10  6  0  0.00000000      96 __u+U ITR00 EXT  IAC
## 2244 194400.00000000   900.00000000 59954 0.2500000000000
+  119   C06C07C08C09C10C11C12C13C14C16C19C20C21C22C23C24C25
+        C26C27C28C29C30C32C33C34C35C36C37C38C39C40C41C42C43
+        C44C45C46E01E02E03E04E05E07E08E09E10E11E12E13E14E15
+        E18E19E21E24E25E26E27E30E31E33E34E36G01G02G03G04G05
+        G06G07G08G09G10G11G12G13G14G15G16G17G18G19G20G21G22
+        G23G24G25G26G27G29G30G31G32J02J03J04R01R02R03R04R05
+        R07R08R09R11R12R13R14R15R16R17R18R19R20R21R22R24R25
++         0  0  0  0  0  0  0  0  0  0  0  0  0  0  0  0  0
++         0  0  0  0  0  0  0  0  0  0  0  0  0  0  0  0  0
++         0  0  0  0  0  0  0  0  0  0  0  0  0  0  0  0  0
++         0  0  0  0  0  0  0  0  0  0  0  0  0  0  0  0  0
++         0  0  0  0  0  0  0  0  0  0  0  0  0  0  0  0  0
++         0  0  0  0  0  0  0  0  0  0  0  0  0  0  0  0  0
++         0  0  0  0  0  0  0  0  0  0  0  0  0  0  0  0  0
%c M  cc GPS ccc cccc cccc cccc cccc ccccc ccccc ccccc ccccc
%c cc cc ccc ccc cccc cccc cccc cccc ccccc ccccc ccccc ccccc
%f  0.0000000  0.000000000  0.00000000000  0.000000000000000
%f  0.0000000  0.000000000  0.00000000000  0.000000000000000
%i    0    0    0    0      0      0      0      0         0
%i    0    0    0    0      0      0      0      0         0
/* IAC                                ULTRA-RAPID PREDICTION
/* S/V CLOCKS ARE ALIGNED TO GNSS TIME                      
/* G:C1WC2W R:C1PC2P E:C1XC5X C:C2IC6I J:C1CC2S             
/* PCV:IGS20_2239 OL/AL:FES2004  NONE     YN ORB:CoN CLK:CoN
*  2023 01 11  2  0  0.00000000
PC06  -2548.762480  26683.642000  32598.643068    206.429339
PC07 -16219.940794  32368.770499 -21670.269288     33.440813
PC08  -5961.318194  40864.654223  -8053.608436    527.368021
PC09   5323.000950  30218.131437  29520.842793    211.899939
PC10 -10897.511641  32230.004930 -24892.530318     34.632546
PC11   9947.837660 -12101.094806  23165.999180   -184.904537
PC12  23810.812636    784.921853  14570.962719    391.215994
PC13  -2161.326562  41839.403631  -2957.897542    180.343727
PC14  17230.097364 -19949.790984  -9065.236025    355.641004
PC16  -4773.936644  25136.842748  33750.112237     84.452074
PC19  -8885.594900  20439.338100  16826.832560   -897.668779
PC20 -22032.151762  17071.166383   1635.110655    772.113384
PC21  22846.134769  -3050.152087  15735.425646   -917.816733
PC22   9993.975505  12191.682407  23024.826139   -692.225784
PC23 -10046.048723 -23664.380549  10863.013418   -871.256311
PC24  13364.513631 -13878.879891 -20216.838052   -557.127385
PC25    938.220853 -27316.131818  -5706.850269     53.557904
PC26  16485.445698   4937.484382 -21979.027140    -62.577506
PC27 -26101.461637  -7022.596440  -6923.641851     79.730966
PC28 -19930.541751 -16918.394768   9770.262584     57.506505
PC29   1502.696324  17223.826641 -21908.315899     65.788557
PC30 -18158.212637   7316.095985 -19881.155607      1.276491
PC32 -22802.922523   3184.808499 -15757.435612   -653.999776
PC33   8850.660524 -20506.939005 -16719.786262   -882.219099
PC34  17209.427814  -8147.431192  20401.858902     80.950345
PC35  19531.383875  16695.591521 -10945.250573    245.654360
PC36  -2033.501467  27098.153355   6333.943175   -703.415533
PC37 -16253.023676  -6978.077467  21595.466659   -851.534419
PC38 -10319.159239  37818.088864 -15267.045464     51.116863
PC39 -10216.097369  21916.901108  34565.187488     -1.371350
PC40 -23840.147439  27334.525612 -21682.036350    -12.239019
PC41  -9492.946112 -12577.937134 -22979.516800   -479.950263
PC42  22544.159294 -16428.611864   -324.204752   -903.297145
PC43   -505.721090 -17093.662347  22042.394232      1.451543
PC44  26394.520956   6208.395837   6666.101053    173.402733
PC45  10196.891453  23394.699003 -11263.009815    -45.993890
PC46 -12496.765226  15622.541607  19428.406524    -25.599365
PE01  -1510.838317  25758.505306 -14494.711801   -593.136267
PE02   1250.796582 -25637.270066  14758.572449     13.961428
PE03  -6200.289706 -16358.752563 -23884.503282   -638.712969
PE04  24571.888685   8198.753765  14330.479572    -33.520743
PE05  16269.599697 -15081.161103 -19600.323988   -106.383979
PE07 -28919.258838   4985.391570   3891.025439    -14.219227
PE08 -24521.676276  -8115.189024 -14465.990524    -17.447336
PE09  28950.473046  -4898.156526  -3716.151161   -795.718655
PE10  21253.584601  10758.623895  17567.956294   -504.206214
PE11  18283.139273    -67.137965  23279.907771    406.087549
PE12  20628.337821  18931.419332   9637.165510   -379.697488
PE13 -18609.146880   -874.277795 -22989.841057    429.992652
PE14 -10157.441396 -15394.737643  17839.624895    109.950928
PE15 -20553.247892 -19138.985440  -9329.341617    694.974420
PE18   -711.894561  19811.322578 -23738.643176   -523.646059
PE19   3041.460613  16675.151650  24268.968010  -3517.855476
PE21 -14158.882148  25895.421954   2179.842253   -505.545523
PE24  19865.502028 -10301.435397 -19408.153025  -1051.228214
PE25  14340.652729 -25783.044009  -2490.641530   -596.922417
PE26  -5247.732947  18393.435796 -22578.565775  -1855.046014
PE27 -19796.414961  11259.309596  18896.724113   -484.745143
PE30 -13309.074545 -10648.668347  24189.455416  -1150.394907
PE31  13726.993158   9830.512355 -24308.231159   -513.000510
PE33  10367.554055  25969.723927  -9711.534139   -454.452115
PE34 -10526.011374 -25961.250433   9573.266188    -24.209398
PE36   5798.576302 -17680.311527  23027.975417   -488.619440
PG01  17901.864858   7636.875732  17921.481544    225.974604
PG02 -17830.512473  -2830.321077 -18772.764253   -628.041993
PG03  17241.216441  -3392.440592  19760.932793   -372.855359
PG04  26615.145485    511.544290   -224.840277    -51.180308
PG05 -10698.939923 -11760.475821 -21427.660373   -111.517115
PG06  -3286.408631 -22868.102665  13093.297833    556.456883
PG07  13019.459155  -7930.859580 -21315.560170    260.773966
PG08  23320.181321   6977.864599 -11125.275358   -102.983010
PG09  22888.084804  -8298.755897 -10752.109747   -238.575988
PG10 -10715.429551  23882.998353   3510.392123    -19.899345
PG11 -11893.736922 -23761.954248    644.228599    -75.960605
PG12 -17128.889528    904.739066  19974.430439   -326.630907
PG13 -17155.653236 -13109.090651 -15771.314004    457.288910
PG14  13173.889162 -22963.123626   1023.246608    -51.802177
PG15 -23960.385254  -4870.277846 -11155.124145      3.562909
PG16   6908.250594  15265.674013 -20789.854441   -524.197154
PG17  12072.311079 -13044.283819  20205.311310    692.502543
PG18 -10648.277265  11103.687531 -21631.088644    -94.181922
PG19   -561.083735 -14879.762693  21775.564292    262.468733
PG20  -3573.599609 -21709.586371 -15004.445873    457.837337
PG21  20089.493905  13892.608117  11952.327879    153.351663
PG22   4546.043641  15421.529533  21598.411875    403.334436
PG23 -16300.927510  19323.603467  -7901.264972      2.127439
PG24 -20051.373054 -10285.598789  14030.342320    -24.550883
PG25 -18374.613129  11274.152790  15017.509313    410.203433
PG26  -1299.107804  23411.129903 -12251.314640    240.096379
PG27  14125.635854  12789.324192 -18899.708347    130.118955
PG29 -24769.425011   4258.249459  -8753.432508   -579.666253
PG30   3990.667331 -19230.443785 -17671.548850   -533.567083
PG31   4109.309513  23457.685688  11098.188268   -205.967206
PG32  -8101.124565  14672.052784  20717.752873   -359.975142
PJ02 -32874.317269  25058.950698  13466.325641     -0.541932
PJ03 -22937.146009  19058.747709 -25172.548397     -0.081783
PJ04 -25685.122344  33709.014572   5665.708037    118.259735
PR01  -7361.619908  14235.353194  19848.061815     21.046719
PR02  11470.732674   6120.980970  22000.865108    -23.331437
PR03  22653.831168  -4904.845507  10763.945185     70.653977
PR04  21158.729310 -12828.930860  -6205.860462    171.873212
PR05   8202.048882 -13831.856647 -19801.119927    105.977702
PR07 -22818.512328   5377.364800  -9949.585655     47.751597
PR08 -20931.019074  13049.565673   6489.022880    -68.956827
PR09  -7112.782574 -17949.362991  16642.085070     97.889606
PR11  -9281.140567  16690.548960  16922.185172      7.518896
PR12  -1893.666003  25422.541016   -436.923541     24.225261
PR13   6081.689726  19333.044311 -15505.175275    -30.833361
PR14  11136.786249    425.555730 -22938.742915     24.205977
PR15   9239.628539 -17497.318561 -16085.849997     91.770967
PR16   1826.594477 -25428.405647    111.412120      9.803144
PR17  20922.971274   8119.205760  12103.386108    594.680298
PR18  11755.461872  -3874.019629  22334.245242     61.180263
PR19  -1925.146154 -13537.622556  21540.127314   -217.808285
PR20 -17814.486784 -17166.779218   6137.963816    -85.617844
PR21 -20414.221638  -7206.723657 -13503.381399   -364.490834
PR22 -11443.136386   4398.244126 -22335.501879     66.080530
PR24  18623.204025  16563.671929  -5379.663317    138.771540
PR25 -20705.772555  -9281.899437 -11661.982734     51.270064
EOF
